{
  "type": "FeatureCollection",
  "features": [
    {
      "type": "Feature",
      "properties": {
        "name": "home",
        "type": "waypoint"
      },
      "geometry": {
        "type": "Point",
        "coordinates": [
          8.5448386,
          47.3981555,
          0.0
        ]
      }
    },
    {
      "type": "Feature",
      "properties": {
        "name": "middle",
        "type": "waypoint"
      },
      "geometry": {
        "type": "Point",
        "coordinates": [
          8.5445662,
          47.3978915,
          0.0
        ]
      }
    },
    {
      "type": "Feature",
      "properties": {
        "name": "sailing_area",
        "type": "sailing_area"
      },
      "geometry": {
        "type": "Polygon",
        "coordinates": [
          [
            [
              8.5448064,
              47.3981645,
              0.0
            ],
            [
              8.5446841,
              47.3981151,
              0.0
            ],
            [
              8.5445948,
              47.3981176,
              0.0
            ],
            [
              8.5445341,
              47.3980979,
              0.0
            ],
            [
              8.5444867,
              47.3980583,
              0.0
            ],
            [
              8.5443678,
              47.3979272,
              0.0
            ],
            [
              8.5442677,
              47.3977761,
              0.0
            ],
            [
              8.5444115,
              47.3976898,
              0.0
            ],
            [
              8.5445872,
              47.397638,
              0.0
            ],
            [
              8.5446931,
              47.3977887,
              0.0
            ],
            [
              8.5447991,
              47.3979258,
              0.0
            ],
            [
              8.5448017,
              47.3980574,
              0.0
            ],
            [
              8.5448366,
              47.3980928,
              0.0
            ],
            [
              8.5448607,
              47.398141,
              0.0
            ],
            [
              8.5448064,
              47.3981645,
              0.0
            ]
          ]
        ]
      }
    }
  ]
}