{
  "type": "FeatureCollection",
  "features": [
    {
      "type": "Feature",
      "properties": {
        "name": "home",
        "type": "waypoint"
      },
      "geometry": {
        "type": "Point",
        "coordinates": [
          8.5448386,
          47.3981555,
          0.0
        ]
      }
    },
    {
      "type": "Feature",
      "properties": {
        "name": "sailing_area",
        "type": "sailing_area"
      },
      "geometry": {
        "type": "Polygon",
        "coordinates": [
          [
            [
              8.5448064,
              47.3981645,
              0.0
            ],
            [
              8.5446841,
              47.3981151,
              0.0
            ],
            [
              8.544535,
              47.3980946,
              0.0
            ],
            [
              8.5442261,
              47.3977815,
              0.0
            ],
            [
              8.5439992,
              47.3977887,
              0.0
            ],
            [
              8.5439332,
              47.3977288,
              0.0
            ],
            [
              8.5438506,
              47.3976262,
              0.0
            ],
            [
              8.54365,
              47.3974764,
              0.0
            ],
            [
              8.5433292,
              47.397244,
              0.0
            ],
            [
              8.543348,
              47.3971941,
              0.0
            ],
            [
              8.5434123,
              47.3971642,
              0.0
            ],
            [
              8.5437691,
              47.3972931,
              0.0
            ],
            [
              8.543989,
              47.3973947,
              0.0
            ],
            [
              8.5439783,
              47.3974601,
              0.0
            ],
            [
              8.5440239,
              47.3975,
              0.0
            ],
            [
              8.544158,
              47.3974728,
              0.0
            ],
            [
              8.5442251,
              47.397353,
              0.0
            ],
            [
              8.5443055,
              47.3973439,
              0.0
            ],
            [
              8.5444209,
              47.3974655,
              0.0
            ],
            [
              8.5444745,
              47.3975672,
              0.0
            ],
            [
              8.5445872,
              47.3975999,
              0.0
            ],
            [
              8.5447964,
              47.3979394,
              0.0
            ],
            [
              8.5448017,
              47.3980574,
              0.0
            ],
            [
              8.5448607,
              47.398141,
              0.0
            ],
            [
              8.5448064,
              47.3981645,
              0.0
            ]
          ]
        ]
      }
    },
    {
      "type": "Feature",
      "properties": {
        "name": "rock",
        "type": "hazard"
      },
      "geometry": {
        "type": "Polygon",
        "coordinates": [
          [
            [
              8.5439461,
              47.3975182,
              0.0
            ],
            [
              8.5440239,
              47.3975182,
              0.0
            ],
            [
              8.5440105,
              47.3975473,
              0.0
            ],
            [
              8.5439488,
              47.3975545,
              0.0
            ],
            [
              8.5439461,
              47.3975182,
              0.0
            ]
          ]
        ]
      }
    }
  ]
}