{
  "type": "FeatureCollection",
  "features": [
    {
      "type": "Feature",
      "properties": {
        "name": "home",
        "type": "waypoint"
      },
      "geometry": {
        "type": "Point",
        "coordinates": [
          8.5506136,
          47.3982374,
          0.0
        ]
      }
    },
    {
      "type": "Feature",
      "properties": {
        "name": "sailing_area",
        "type": "sailing_area"
      },
      "geometry": {
        "type": "Polygon",
        "coordinates": [
          [
            [
              8.5506003,
              47.3982825,
              0.0
            ],
            [
              8.5505681,
              47.3982353,
              0.0
            ],
            [
              8.5508578,
              47.3981445,
              0.0
            ],
            [
              8.5511046,
              47.39813,
              0.0
            ],
            [
              8.5512628,
              47.3981046,
              0.0
            ],
            [
              8.551236,
              47.3980574,
              0.0
            ],
            [
              8.5516035,
              47.3979466,
              0.0
            ],
            [
              8.5516625,
              47.3980701,
              0.0
            ],
            [
              8.551126,
              47.3982099,
              0.0
            ],
            [
              8.5512226,
              47.3984913,
              0.0
            ],
            [
              8.5512736,
              47.3986928,
              0.0
            ],
            [
              8.551346,
              47.398622,
              0.0
            ],
            [
              8.5515552,
              47.3985222,
              0.0
            ],
            [
              8.5517,
              47.3985167,
              0.0
            ],
            [
              8.5518985,
              47.3985312,
              0.0
            ],
            [
              8.5520326,
              47.3985439,
              0.0
            ],
            [
              8.5521533,
              47.3985294,
              0.0
            ],
            [
              8.5522231,
              47.3984731,
              0.0
            ],
            [
              8.5522821,
              47.3983842,
              0.0
            ],
            [
              8.5522392,
              47.3982571,
              0.0
            ],
            [
              8.552105,
              47.3979775,
              0.0
            ],
            [
              8.5519683,
              47.3977215,
              0.0
            ],
            [
              8.5520836,
              47.3976942,
              0.0
            ],
            [
              8.5521587,
              47.3979121,
              0.0
            ],
            [
              8.5522794,
              47.3981518,
              0.0
            ],
            [
              8.5523625,
              47.3983805,
              0.0
            ],
            [
              8.5522955,
              47.3985185,
              0.0
            ],
            [
              8.552156,
              47.3985948,
              0.0
            ],
            [
              8.5519736,
              47.398593,
              0.0
            ],
            [
              8.5517537,
              47.3985712,
              0.0
            ],
            [
              8.5515767,
              47.3985675,
              0.0
            ],
            [
              8.5514104,
              47.3986492,
              0.0
            ],
            [
              8.5512923,
              47.3987618,
              0.0
            ],
            [
              8.5512199,
              47.3987346,
              0.0
            ],
            [
              8.551169,
              47.3985094,
              0.0
            ],
            [
              8.5510375,
              47.3981881,
              0.0
            ],
            [
              8.5508364,
              47.3982026,
              0.0
            ],
            [
              8.5506003,
              47.3982825,
              0.0
            ]
          ]
        ]
      }
    },
    {
      "type": "Feature",
      "properties": {
        "name": "rock",
        "type": "waypoint"
      },
      "geometry": {
        "type": "Point",
        "coordinates": [
          8.5512199,
          47.3983479,
          0.0
        ]
      }
    }
  ]
}