{
  "type": "FeatureCollection",
  "features": [
    {
      "type": "Feature",
      "properties": {
        "name": "home",
        "type": "waypoint"
      },
      "geometry": {
        "type": "Point",
        "coordinates": [
          8.2553081,
          40.5839407,
          0.0
        ]
      }
    },
    {
      "type": "Feature",
      "properties": {
        "name": "sWim hazard",
        "type": "hazard"
      },
      "geometry": {
        "type": "Polygon",
        "coordinates": [
          [
            [
              8.2552281,
              40.5836179,
              0.0
            ],
            [
              8.2552374,
              40.5836035,
              0.0
            ],
            [
              8.2556908,
              40.583845,
              0.0
            ],
            [
              8.2556894,
              40.5838694,
              0.0
            ],
            [
              8.2552281,
              40.5836179,
              0.0
            ]
          ]
        ]
      }
    },
    {
      "type": "Feature",
      "properties": {
        "name": "middle",
        "type": "waypoint"
      },
      "geometry": {
        "type": "Point",
        "coordinates": [
          8.2557792,
          40.5833053,
          0.0
        ]
      }
    },
    {
      "type": "Feature",
      "properties": {
        "name": "approach_1",
        "type": "waypoint"
      },
      "geometry": {
        "type": "Point",
        "coordinates": [
          8.2555137,
          40.5839239,
          0.0
        ]
      }
    },
    {
      "type": "Feature",
      "properties": {
        "name": "approach_2",
        "type": "waypoint"
      },
      "geometry": {
        "type": "Point",
        "coordinates": [
          8.255739,
          40.58393,
          0.0
        ]
      }
    },
    {
      "type": "Feature",
      "properties": {
        "name": "approach_3",
        "type": "waypoint"
      },
      "geometry": {
        "type": "Point",
        "coordinates": [
          8.2558423,
          40.5837834,
          0.0
        ]
      }
    },
    {
      "type": "Feature",
      "properties": {
        "name": "rocks",
        "type": "hazard"
      },
      "geometry": {
        "type": "Polygon",
        "coordinates": [
          [
            [
              8.2550173,
              40.5833637,
              0.0
            ],
            [
              8.2545077,
              40.5831091,
              0.0
            ],
            [
              8.2553499,
              40.5824939,
              0.0
            ],
            [
              8.255779,
              40.5827628,
              0.0
            ],
            [
              8.2550173,
              40.5833637,
              0.0
            ]
          ]
        ]
      }
    },
    {
      "type": "Feature",
      "properties": {
        "name": "rocks",
        "type": "hazard"
      },
      "geometry": {
        "type": "Polygon",
        "coordinates": [
          [
            [
              8.2550173,
              40.5837548,
              0.0
            ],
            [
              8.254961,
              40.5834655,
              0.0
            ],
            [
              8.2551648,
              40.5836224,
              0.0
            ],
            [
              8.2550173,
              40.5837548,
              0.0
            ]
          ]
        ]
      }
    },
    {
      "type": "Feature",
      "properties": {
        "name": "boat lane hazard",
        "type": "hazard"
      },
      "geometry": {
        "type": "Polygon",
        "coordinates": [
          [
            [
              8.2557043,
              40.5840695,
              0.0
            ],
            [
              8.2566873,
              40.5829257,
              0.0
            ],
            [
              8.2570601,
              40.5830703,
              0.0
            ],
            [
              8.2562447,
              40.584202,
              0.0
            ],
            [
              8.2557043,
              40.5840695,
              0.0
            ]
          ]
        ]
      }
    },
    {
      "type": "Feature",
      "properties": {
        "name": "sailing_area",
        "type": "sailing_area"
      },
      "geometry": {
        "type": "Polygon",
        "coordinates": [
          [
            [
              8.2558344,
              40.5838604,
              0.0
            ],
            [
              8.255141,
              40.583506,
              0.0
            ],
            [
              8.2556319,
              40.5829569,
              0.0
            ],
            [
              8.256285,
              40.5832829,
              0.0
            ],
            [
              8.2558344,
              40.5838604,
              0.0
            ]
          ]
        ]
      }
    }
  ]
}